[Satellite]
VERSION=1.1
NAME=COSMOS 2456 (730)
NICKNAME=COSMOS 2456 (730)
TLE1=1 36111U 09070A   17185.90718189  .00000090  00000-0  00000-0 0  9992
TLE2=2 36111  64.1813 182.9706 0006625 297.6721   3.0060  2.13102928 58799
